[{"OBJECT_NAME":"STARLINK-3942","OBJECT_ID":"2022-051AG","EPOCH":"2026-03-09T12:02:27.748320","MEAN_MOTION":15.08837727,"ECCENTRICITY":0.00014793,"INCLINATION":53.2177,"RA_OF_ASC_NODE":134.9659,"ARG_OF_PERICENTER":91.5973,"MEAN_ANOMALY":268.5189,"EPHEMERIS_TYPE":0,"CLASSIFICATION_TYPE":"U","NORAD_CAT_ID":52563,"ELEMENT_SET_NO":999,"REV_AT_EPOCH":21134,"BSTAR":-2.7659163e-5,"MEAN_MOTION_DOT":-7.28e-6,"MEAN_MOTION_DDOT":0},{"OBJECT_NAME":"PSLV R\/B","OBJECT_ID":"2010-035F","EPOCH":"2026-03-09T21:32:02.806944","MEAN_MOTION":15.11637156,"ECCENTRICITY":0.00120112,"INCLINATION":97.9796,"RA_OF_ASC_NODE":355.2302,"ARG_OF_PERICENTER":197.9598,"MEAN_ANOMALY":162.1208,"EPHEMERIS_TYPE":0,"CLASSIFICATION_TYPE":"U","NORAD_CAT_ID":36800,"ELEMENT_SET_NO":999,"REV_AT_EPOCH":85407,"BSTAR":0.00037264097,"MEAN_MOTION_DOT":6.275e-5,"MEAN_MOTION_DDOT":0}]
